[{"OBJECT_NAME":"STARLINK-34787","OBJECT_ID":"2025-176G","EPOCH":"2026-03-09T22:43:31.092096","MEAN_MOTION":15.30200787,"ECCENTRICITY":0.00013805,"INCLINATION":53.1606,"RA_OF_ASC_NODE":151.2612,"ARG_OF_PERICENTER":89.6011,"MEAN_ANOMALY":270.5147,"EPHEMERIS_TYPE":0,"CLASSIFICATION_TYPE":"U","NORAD_CAT_ID":65204,"ELEMENT_SET_NO":999,"REV_AT_EPOCH":3316,"BSTAR":0.00096241233,"MEAN_MOTION_DOT":0.00028254,"MEAN_MOTION_DDOT":0},{"OBJECT_NAME":"USA 40 R\/B DEB","OBJECT_ID":"1989-061BF","EPOCH":"2026-03-09T11:01:29.535168","MEAN_MOTION":9.58078532,"ECCENTRICITY":0.26908089,"INCLINATION":57,"RA_OF_ASC_NODE":145.4523,"ARG_OF_PERICENTER":62.5186,"MEAN_ANOMALY":322.3123,"EPHEMERIS_TYPE":0,"CLASSIFICATION_TYPE":"U","NORAD_CAT_ID":23383,"ELEMENT_SET_NO":999,"REV_AT_EPOCH":23463,"BSTAR":0.0027511821,"MEAN_MOTION_DOT":6.281e-5,"MEAN_MOTION_DDOT":0}]
